NORAD_CAT_ID,OBJECT_NAME,OBJECT_TYPE,EPOCH,MEAN_MOTION,ECCENTRICITY,INCLINATION,RA_OF_ASC_NODE,ARG_OF_PERICENTER,MEAN_ANOMALY,BSTAR,MEAN_MOTION_DOT,MEAN_MOTION_DDOT,TLE_LINE0,TLE_LINE1,TLE_LINE2,SEMIMAJOR_AXIS,PERIOD,APOGEE,PERIGEE,DECAYED
53925.0,STARLINK-5011,PAYLOAD,2024-08-04 18:58:23,15.08849884,0.0001119,53.2165,45.9679,90.6399,269.4721,0.00099689,0.00015617,0.0,0 STARLINK-5011,1 53925U 22119AR  24217.79054848  .00015617  00000-0  99689-3 0  9994,2 53925  53.2165  45.9679 0001119  90.6399 269.4721 15.08849884103567,6917.85,95.437,540.489,538.941,0.0
53925.0,STARLINK-5011,PAYLOAD,2024-08-05 18:49:11,15.08821817,0.0001475,53.2167,41.5085,93.3704,266.7457,0.0012088,0.00018993,0.0,0 STARLINK-5011,1 53925U 22119AR  24218.78415718  .00018993  00000-0  12088-2 0  9998,2 53925  53.2167  41.5085 0001475  93.3704 266.7457 15.08821817103716,6917.936,95.439,540.821,538.781,0.0
53925.0,STARLINK-5011,PAYLOAD,2024-08-06 05:56:53,15.08839165,0.0001527,53.2176,39.4265,92.2937,267.823,0.0012024,0.000189,0.0,0 STARLINK-5011,1 53925U 22119AR  24219.24783948  .00018900  00000-0  12024-2 0  9991,2 53925  53.2176  39.4265 0001527  92.2937 267.8230 15.08839165104207,6917.883,95.438,540.804,538.692,0.0
53925.0,STARLINK-5011,PAYLOAD,2024-08-06 18:39:58,15.08845599,0.0001588,53.2181,37.0476,95.1835,264.9339,0.00077962,0.00012143,0.0,0 STARLINK-5011,1 53925U 22119AR  24219.77776014  .00012143  00000-0  77962-3 0  9991,2 53925  53.2181  37.0476 0001588  95.1835 264.9339 15.08845599103864,6917.863,95.437,540.827,538.63,0.0
53925.0,STARLINK-5011,PAYLOAD,2024-08-06 21:50:44,15.08852425,0.0001563,53.2179,36.4524,95.033,265.084,0.00090961,0.00014223,0.0,0 STARLINK-5011,1 53925U 22119AR  24219.91023859  .00014223  00000-0  90961-3 0  9994,2 53925  53.2179  36.4524 0001563  95.0330 265.0840 15.08852425104305,6917.842,95.437,540.789,538.626,0.0
53925.0,STARLINK-5011,PAYLOAD,2024-08-07 18:30:45,15.08852054,0.000141,53.2175,32.5872,94.4135,265.7019,0.00040667,6.192e-05,0.0,0 STARLINK-5011,1 53925U 22119AR  24220.77135504  .00006192  00000-0  40667-3 0  9995,2 53925  53.2175  32.5872 0001410  94.4135 265.7019 15.08852054104012,6917.844,95.437,540.684,538.733,0.0
53925.0,STARLINK-5011,PAYLOAD,2024-08-08 11:59:59,15.08848051,0.0001321,53.2173,29.315,93.2219,266.8924,0.00013149,1.806e-05,0.0,0 STARLINK-5011,1 53925U 22119AR  24221.49999190  .00001806  00000-0  13149-3 0  9996,2 53925  53.2173  29.3150 0001321  93.2219 266.8924 15.08848051104541,6917.856,95.437,540.635,538.807,0.0
53925.0,STARLINK-5011,PAYLOAD,2024-08-08 16:46:08,15.08847233,0.000147,53.2177,28.4212,94.8011,265.3149,-0.00016415,-2.9e-05,0.0,0 STARLINK-5011,1 53925U 22119AR  24221.69871062 -.00002900  00000-0 -16415-3 0  9992,2 53925  53.2177  28.4212 0001470  94.8011 265.3149 15.08847233104157,6917.858,95.437,540.74,538.706,0.0
53925.0,STARLINK-5011,PAYLOAD,2024-08-09 10:15:23,15.08841908,0.000205,53.2178,25.1546,94.1141,266.0085,4.3228e-05,4e-06,0.0,0 STARLINK-5011,1 53925U 22119AR  24222.42735445  .00000400  00000-0  43228-4 0  9992,2 53925  53.2178  25.1546 0002050  94.1141 266.0085 15.08841908104682,6917.875,95.437,541.158,538.321,0.0
53925.0,STARLINK-5011,PAYLOAD,2024-08-09 19:47:42,15.08844865,0.0001337,53.2176,23.3646,112.7952,247.3182,0.0001075,1.424e-05,0.0,0 STARLINK-5011,1 53925U 22119AR  24222.82479260  .00001424  00000-0  10750-3 0  9996,2 53925  53.2176  23.3646 0001337 112.7952 247.3182 15.08844865104321,6917.866,95.437,540.655,538.806,0.0
53925.0,STARLINK-5011,PAYLOAD,2024-08-09 21:23:05,15.08843482,0.0001447,53.2178,23.068,117.8103,242.3036,8.1109e-05,1.003e-05,0.0,0 STARLINK-5011,1 53925U 22119AR  24222.89103304  .00001003  00000-0  81109-4 0  9996,2 53925  53.2178  23.0680 0001447 117.8103 242.3036 15.08843482104758,6917.87,95.437,540.736,538.734,0.0
53925.0,STARLINK-5011,PAYLOAD,2024-08-10 14:52:19,15.08846521,0.0001638,53.218,19.7977,124.2032,235.9116,0.00019735,2.855e-05,0.0,0 STARLINK-5011,1 53925U 22119AR  24223.61967058  .00002855  00000-0  19735-3 0  9992,2 53925  53.2180  19.7977 0001638 124.2032 235.9116 15.08846521104863,6917.86,95.437,540.859,538.592,0.0
53925.0,STARLINK-5011,PAYLOAD,2024-08-10 19:38:28,15.08852821,0.0001236,53.2186,18.9061,82.7635,277.3497,0.00036195,5.479e-05,0.0,0 STARLINK-5011,1 53925U 22119AR  24223.81839020  .00005479  00000-0  36195-3 0  9995,2 53925  53.2186  18.9061 0001236  82.7635 277.3497 15.08852821104890,6917.841,95.437,540.561,538.851,0.0
53925.0,STARLINK-5011,PAYLOAD,2024-08-11 09:56:57,15.08824521,0.0001657,53.2179,16.2343,87.8125,272.3057,-0.00024514,-4.186e-05,0.0,0 STARLINK-5011,1 53925U 22119AR  24224.41455893 -.00004186  00000-0 -24514-3 0  9992,2 53925  53.2179  16.2343 0001657  87.8125 272.3057 15.08824521104560,6917.928,95.439,540.939,538.646,0.0
53925.0,STARLINK-5011,PAYLOAD,2024-08-11 16:18:30,15.08839659,0.0002009,53.2163,15.0456,84.4851,275.637,0.00013043,1.788e-05,0.0,0 STARLINK-5011,1 53925U 22119AR  24224.67951640  .00001788  00000-0  13043-3 0  9999,2 53925  53.2163  15.0456 0002009  84.4851 275.6370 15.08839659104603,6917.881,95.438,541.136,538.357,0.0
53925.0,STARLINK-5011,PAYLOAD,2024-08-12 09:47:44,15.08839935,0.0003058,53.2158,11.7759,85.9465,274.1876,0.00021459,3.128e-05,0.0,0 STARLINK-5011,1 53925U 22119AR  24225.40815952  .00003128  00000-0  21459-3 0  9996,2 53925  53.2158  11.7759 0003058  85.9465 274.1876 15.08839935105139,6917.881,95.438,541.861,537.63,0.0
53925.0,STARLINK-5011,PAYLOAD,2024-08-12 20:55:26,15.08868534,0.000189,53.2179,9.6902,95.7461,264.3747,0.0011577,0.00018199,0.0,0 STARLINK-5011,1 53925U 22119AR  24225.87183088  .00018199  00000-0  11577-2 0  9998,2 53925  53.2179   9.6902 0001890  95.7461 264.3747 15.08868534105208,6917.793,95.436,540.966,538.351,0.0
53925.0,STARLINK-5011,PAYLOAD,2024-08-13 03:16:58,15.08856851,0.000199,53.2174,8.5015,91.1045,269.0175,0.00059442,9.189e-05,0.0,0 STARLINK-5011,1 53925U 22119AR  24226.13678995  .00009189  00000-0  59442-3 0  9997,2 53925  53.2174   8.5015 0001990  91.1045 269.0175 15.08856851104828,6917.829,95.436,541.071,538.317,0.0
53925.0,STARLINK-5011,PAYLOAD,2024-08-13 19:10:50,15.0883444,0.0002064,53.2118,5.5284,85.3704,274.7524,-4.5234e-05,-1.008e-05,0.0,0 STARLINK-5011,1 53925U 22119AR  24226.79919717 -.00001008  00000-0 -45234-4 0  9998,2 53925  53.2118   5.5284 0002064  85.3704 274.7524 15.08834440104923,6917.897,95.438,541.19,538.335,0.0
53925.0,STARLINK-5011,PAYLOAD,2024-08-13 20:46:13,15.08839183,0.0001882,53.2162,5.2326,82.3949,277.7256,-7.0635e-07,-2.99e-06,0.0,0 STARLINK-5011,1 53925U 22119AR  24226.86543424 -.00000299  00000-0 -70635-6 0  9990,2 53925  53.2162   5.2326 0001882  82.3949 277.7256 15.08839183105353,6917.883,95.438,541.05,538.446,0.0
53925.0,STARLINK-5011,PAYLOAD,2024-08-14 14:15:28,15.08834219,0.000156,53.2192,1.9592,105.2074,254.909,-3.646e-05,-8.68e-06,0.0,0 STARLINK-5011,1 53925U 22119AR  24227.59407702 -.00000868  00000-0 -36460-4 0  9997,2 53925  53.2192   1.9592 0001560 105.2074 254.9090 15.08834219105461,6917.898,95.438,540.842,538.684,0.0
53925.0,STARLINK-5011,PAYLOAD,2024-08-14 15:50:51,15.08835047,0.000144,53.2183,1.6636,87.4854,272.6303,-1.8406e-05,-5.81e-06,0.0,0 STARLINK-5011,1 53925U 22119AR  24227.66031819 -.00000581  00000-0 -18406-4 0  9999,2 53925  53.2183   1.6636 0001440  87.4854 272.6303 15.08835047105476,6917.896,95.438,540.757,538.764,0.0
53925.0,STARLINK-5011,PAYLOAD,2024-08-15 15:41:38,15.08836529,0.0001361,53.2182,357.201,85.0873,275.0275,0.00019558,2.826e-05,0.0,0 STARLINK-5011,1 53925U 22119AR  24228.65392271  .00002826  00000-0  19558-3 0  9991,2 53925  53.2182 357.2010 0001361  85.0873 275.0275 15.08836529105626,6917.891,95.438,540.698,538.814,0.0
53925.0,STARLINK-5011,PAYLOAD,2024-08-16 01:13:57,15.08848236,0.0001325,53.2189,355.4172,85.132,274.9824,0.00030708,4.604e-05,0.0,0 STARLINK-5011,1 53925U 22119AR  24229.05135749  .00004604  00000-0  30708-3 0  9997,2 53925  53.2189 355.4172 0001325  85.1320 274.9824 15.08848236105266,6917.855,95.437,540.637,538.804,0.0
53925.0,STARLINK-5011,PAYLOAD,2024-08-17 04:15:31,15.08835039,0.0001519,53.2194,350.3634,93.3234,266.7932,-3.8779e-06,-3.5e-06,0.0,0 STARLINK-5011,1 53925U 22119AR  24230.17744468 -.00000350  00000-0 -38779-5 0  9990,2 53925  53.2194 350.3634 0001519  93.3234 266.7932 15.08835039105434,6917.896,95.438,540.811,538.71,0.0
53925.0,STARLINK-5011,PAYLOAD,2024-08-17 16:58:36,15.08825436,0.0001474,53.2191,347.9838,91.0672,269.0489,-0.00015532,-2.758e-05,0.0,0 STARLINK-5011,1 53925U 22119AR  24230.70737141 -.00002758  00000-0 -15532-3 0  9993,2 53925  53.2191 347.9838 0001474  91.0672 269.0489 15.08825436105512,6917.925,95.438,540.81,538.77,0.0
53925.0,STARLINK-5011,PAYLOAD,2024-08-18 12:03:14,15.08842058,0.0001491,53.2165,344.4179,84.3183,275.7979,0.00018526,2.662e-05,0.0,0 STARLINK-5011,1 53925U 22119AR  24231.50224875  .00002662  00000-0  18526-3 0  9995,2 53925  53.2165 344.4179 0001491  84.3183 275.7979 15.08842058105634,6917.874,95.437,540.771,538.708,0.0
53925.0,STARLINK-5011,PAYLOAD,2024-08-18 15:14:00,15.08850498,0.0001299,53.2182,343.8187,95.338,264.776,0.00050751,7.801e-05,0.0,0 STARLINK-5011,1 53925U 22119AR  24231.63472283  .00007801  00000-0  50751-3 0  9993,2 53925  53.2182 343.8187 0001299  95.3380 264.7760 15.08850498105657,6917.848,95.437,540.612,538.815,0.0
53925.0,STARLINK-5011,PAYLOAD,2024-08-19 13:29:24,15.08846561,0.0001279,53.2199,339.6568,90.1347,269.9792,0.00026175,3.881e-05,0.0,0 STARLINK-5011,1 53925U 22119AR  24232.56208439  .00003881  00000-0  26175-3 0  9993,2 53925  53.2199 339.6568 0001279  90.1347 269.9792 15.08846561105798,6917.86,95.437,540.61,538.841,0.0
53925.0,STARLINK-5011,PAYLOAD,2024-08-20 00:37:07,15.08824554,0.0001613,53.2178,337.576,79.5312,280.5862,0.00036357,5.501e-05,0.0,0 STARLINK-5011,1 53925U 22119AR  24233.02577712  .00005501  00000-0  36357-3 0  9992,2 53925  53.2178 337.5760 0001613  79.5312 280.5862 15.08824554105864,6917.928,95.439,540.908,538.677,0.0
